[{"OBJECT_NAME":"KUIPER-00170","OBJECT_ID":"2025-217X","EPOCH":"2026-03-09T07:36:16.011072","MEAN_MOTION":14.79913097,"ECCENTRICITY":7.549e-5,"INCLINATION":51.9002,"RA_OF_ASC_NODE":39.732,"ARG_OF_PERICENTER":111.3299,"MEAN_ANOMALY":248.7744,"EPHEMERIS_TYPE":0,"CLASSIFICATION_TYPE":"U","NORAD_CAT_ID":65783,"ELEMENT_SET_NO":999,"REV_AT_EPOCH":2489,"BSTAR":0.00028047595,"MEAN_MOTION_DOT":1.917e-5,"MEAN_MOTION_DDOT":0},{"OBJECT_NAME":"COSMOS 2251 DEB","OBJECT_ID":"1993-036YW","EPOCH":"2026-03-07T11:24:56.202336","MEAN_MOTION":14.71684052,"ECCENTRICITY":0.00437348,"INCLINATION":74.0143,"RA_OF_ASC_NODE":86.9546,"ARG_OF_PERICENTER":226.8244,"MEAN_ANOMALY":132.927,"EPHEMERIS_TYPE":0,"CLASSIFICATION_TYPE":"U","NORAD_CAT_ID":34728,"ELEMENT_SET_NO":999,"REV_AT_EPOCH":90046,"BSTAR":0.00074730678,"MEAN_MOTION_DOT":4.697e-5,"MEAN_MOTION_DDOT":0}]
